[{"OBJECT_NAME":"STARLINK-32794","OBJECT_ID":"2025-019R","EPOCH":"2026-03-09T01:46:50.688192","MEAN_MOTION":15.2759537,"ECCENTRICITY":6.306e-5,"INCLINATION":42.9983,"RA_OF_ASC_NODE":92.7239,"ARG_OF_PERICENTER":293.8588,"MEAN_ANOMALY":66.2197,"EPHEMERIS_TYPE":0,"CLASSIFICATION_TYPE":"U","NORAD_CAT_ID":62844,"ELEMENT_SET_NO":999,"REV_AT_EPOCH":6215,"BSTAR":0.0013181805,"MEAN_MOTION_DOT":0.00036207,"MEAN_MOTION_DDOT":0},{"OBJECT_NAME":"CZ-6A DEB","OBJECT_ID":"2022-151AJB","EPOCH":"2026-02-27T14:06:27.470880","MEAN_MOTION":15.13235807,"ECCENTRICITY":0.00651829,"INCLINATION":98.7617,"RA_OF_ASC_NODE":191.4844,"ARG_OF_PERICENTER":85.1472,"MEAN_ANOMALY":275.7194,"EPHEMERIS_TYPE":0,"CLASSIFICATION_TYPE":"U","NORAD_CAT_ID":58433,"ELEMENT_SET_NO":999,"REV_AT_EPOCH":15167,"BSTAR":0.0027921214,"MEAN_MOTION_DOT":0.00052525,"MEAN_MOTION_DDOT":0}]
